LEMUR-2-MYRA            
1 66787U 25276EC  26187.13414169  .00006819  00000+0  54343-3 0  9994
2 66787  97.5207 257.3957 0018432  81.7477 278.5837 15.00519047 33059
LEMUR-2 FIKRETDENGIZ    
1 67363U 26004A   26186.95817128  .00004876  00000+0  53037-3 0  9996
2 67363  97.8024 185.2292 0010567  81.5698 278.6716 14.88472307 26078
TWILIGHT-1 OBJECT B     
1 67364U 26004B   26186.78913355  .00002579  00000+0  28826-3 0  9993
2 67364  97.8065 185.0689 0010187  72.7987 287.4344 14.87772404 26056
LEMUR-2-MARIO-SOUSA     
1 67365U 26004C   26187.00653695  .00005703  00000+0  61621-3 0  9990
2 67365  97.7997 185.2721 0010200  82.5124 277.7252 14.88676989 26093
LEMUR-2-SONNENBLUME     
1 67367U 26004E   26186.94052957  .00003992  00000+0  43591-3 0  9992
2 67367  97.7992 185.1841 0009735  83.8905 276.3421 14.88421442 26088
LEMUR-2-WOBLER          
1 67368U 26004F   26186.99851876  .00004672  00000+0  50618-3 0  9999
2 67368  97.8043 185.3822 0009917  75.1148 285.1167 14.88654041 26092
LEMUR-2-GRAM-E-SUE      
1 67370U 26004H   26186.99002148  .00002949  00000+0  32255-3 0  9994
2 67370  97.7977 185.2490 0008857  85.7710 274.4519 14.88561015 26094
LEMUR-2-KATIE           
1 67387U 26004AA  26186.95716062  .00006145  00000+0  63953-3 0  9996
2 67387  97.8044 185.7372 0004276  55.0547 305.1072 14.90196965 26100
LEMUR-2-HCS-BAZUS       
1 67388U 26004AB  26186.95564912  .00003338  00000+0  34980-3 0  9991
2 67388  97.8031 185.7152 0003672  54.0963 306.0595 14.90229624 26102
